{
    "links": {
        "self": "http://www.neowsapp.com/rest/v1/neo/3759670?api_key=iIulBulltgU6a56xZRHN4H3l9WmuAYTsLGpBGhQ2"
    },
    "id": "3759670",
    "neo_reference_id": "3759670",
    "name": "(2016 SE)",
    "designation": "2016 SE",
    "nasa_jpl_url": "http://ssd.jpl.nasa.gov/sbdb.cgi?sstr=3759670",
    "absolute_magnitude_h": 25.8,
    "estimated_diameter": {
        "kilometers": {
            "estimated_diameter_min": 0.0183888672,
            "estimated_diameter_max": 0.0411187571
        },
        "meters": {
            "estimated_diameter_min": 18.388867207,
            "estimated_diameter_max": 41.1187571041
        },
        "miles": {
            "estimated_diameter_min": 0.0114263088,
            "estimated_diameter_max": 0.0255500032
        },
        "feet": {
            "estimated_diameter_min": 60.3309310875,
            "estimated_diameter_max": 134.9040630575
        }
    },
    "is_potentially_hazardous_asteroid": false,
    "close_approach_data": [
        {
            "close_approach_date": "2006-09-15",
            "close_approach_date_full": "2006-Sep-15 13:48",
            "epoch_date_close_approach": 1158328080000,
            "relative_velocity": {
                "kilometers_per_second": "9.7848880434",
                "kilometers_per_hour": "35225.5969561686",
                "miles_per_hour": "21887.8160642371"
            },
            "miss_distance": {
                "astronomical": "0.1596498342",
                "lunar": "62.1037855038",
                "kilometers": "23883275.142173154",
                "miles": "14840379.0158273652"
            },
            "orbiting_body": "Earth"
        },
        {
            "close_approach_date": "2011-09-16",
            "close_approach_date_full": "2011-Sep-16 23:28",
            "epoch_date_close_approach": 1316215680000,
            "relative_velocity": {
                "kilometers_per_second": "9.0233620316",
                "kilometers_per_hour": "32484.103313832",
                "miles_per_hour": "20184.3585285308"
            },
            "miss_distance": {
                "astronomical": "0.1026884893",
                "lunar": "39.9458223377",
                "kilometers": "15361979.272797791",
                "miles": "9545491.2898038758"
            },
            "orbiting_body": "Earth"
        },
        {
            "close_approach_date": "2016-09-17",
            "close_approach_date_full": "2016-Sep-17 11:59",
            "epoch_date_close_approach": 1474113540000,
            "relative_velocity": {
                "kilometers_per_second": "8.6488756385",
                "kilometers_per_hour": "31135.9522987703",
                "miles_per_hour": "19346.6699158665"
            },
            "miss_distance": {
                "astronomical": "0.0832746499",
                "lunar": "32.3938388111",
                "kilometers": "12457710.250035713",
                "miles": "7740862.2008223194"
            },
            "orbiting_body": "Earth"
        },
        {
            "close_approach_date": "2021-09-19",
            "close_approach_date_full": "2021-Sep-19 11:02",
            "epoch_date_close_approach": 1632049320000,
            "relative_velocity": {
                "kilometers_per_second": "8.5636864272",
                "kilometers_per_hour": "30829.2711378934",
                "miles_per_hour": "19156.1101689871"
            },
            "miss_distance": {
                "astronomical": "0.1111769658",
                "lunar": "43.2478396962",
                "kilometers": "16631837.276742846",
                "miles": "10334544.4645734348"
            },
            "orbiting_body": "Earth"
        }
    ],
    "orbital_data": {
        "orbit_id": "3",
        "orbit_determination_date": "2017-04-06 08:23:45",
        "first_observation_date": "2016-09-22",
        "last_observation_date": "2016-09-28",
        "data_arc_in_days": 6,
        "observations_used": 18,
        "orbit_uncertainty": "8",
        "minimum_orbit_intersection": ".0830804",
        "jupiter_tisserand_invariant": "5.393",
        "epoch_osculation": "2457654.5",
        "eccentricity": ".06996744196923507",
        "semi_major_axis": "1.158595462499179",
        "inclination": "16.66766510260046",
        "ascending_node_longitude": "357.2826863254546",
        "orbital_period": "455.5081604930508",
        "perihelion_distance": "1.077531501710949",
        "perihelion_argument": "327.7046143332698",
        "aphelion_distance": "1.23965942328741",
        "perihelion_time": "2457615.805073320229",
        "mean_anomaly": "30.58161151194146",
        "mean_motion": ".790326126342784",
        "equinox": "J2000",
        "orbit_class": {
            "orbit_class_type": "AMO",
            "orbit_class_description": "Near-Earth asteroid orbits similar to that of 1221 Amor",
            "orbit_class_range": "1.017 AU < q (perihelion) < 1.3 AU"
        }
    },
    "is_sentry_object": false
}